BEIDOU-3 G3 (C61)       
1 45807U 20040A   26061.66056468 -.00000369  00000+0  00000+0 0  9993
2 45807   2.1853  67.1048 0004209 314.8569 126.7245  1.00276174 21000
GALAXY 30 (WAAS/PRN 135)
1 46114U 20056C   26061.70584780  .00000020  00000+0  00000+0 0  9993
2 46114   0.0178 122.3295 0002202 216.8886 310.3450  1.00272146 20228
QZS-1R (QZSS/PRN 196)   
1 49336U 21096A   26060.38447264 -.00000259  00000+0  00000+0 0  9990
2 49336  37.2374  81.1754 0747027 269.6443  80.6815  1.00291836 15925
QZS-6 (QZSS/PRN 200)    
1 62876U 25023A   26061.85007671 -.00000249  00000+0  00000+0 0  9994
2 62876   0.0437 301.6931 0001911  31.5635 223.8945  1.00270421  3893
